{"type":"FeatureCollection","name":"Jeffersontown_City_Limits","features":[{"type":"Feature","properties":{"OBJECTID":205,"NAME":"JEFFERSONTOWN","FIPS":2111140222,"COUNTY":"JEFFERSON","ELEV":702,"COSEAT":"NO","INCORP":"05/00/1797","CLASS":"2","CORP_AREA":"YES","CONTACT":"KEVIN HOGUE","LAST_UPDT":"2024-12-30T00:00:00Z","XY_SOURCE":"SECRETARY OF STATE","XY_ISSUES":" ","COMMENTS":" ","ADDNAME":"KIPDA","SOSLINK":"id=206&city=JEFFERSONTOWN&idctr=206","NAME2":"Jeffersontown","AGENCY_CONT":"DGI","Full_SOS_Link":"https://web.sos.ky.gov/land/cities.aspx?id=206","POP90":23221,"POP2000":26633,"POP2010":26595,"POPEST2011":27215,"POPEST2012":27345,"POPEST2013":27443,"POPEST2014":27405,"POPEST2015":27365,"POPEST2016":27352,"CITYFIPS":"2140222","Area_SqMiles":null,"ShapeSTArea":304137557.661437,"ShapeSTLength":175290.84147274817},"geometry":{"type":"Polygon","coordinates":[[[-85.53185173740665,38.22165892807063],[-85.53225276605511,38.22268935357363],[-85.53244306197823,38.223178391833834],[-85.53247888050396,38.22326721376107],[-85.53275761038856,38.22400575747442],[-85.53594891310782,38.22409936960424],[-85.53786790675998,38.22415417597953],[-85.53976599317866,38.224232281535635],[-85.54064854775982,38.22424802968251],[-85.54109614462209,38.22423069529391],[-85.54185571268737,38.2242650167566],[-85.54241972267849,38.22429043297549],[-85.54294121775361,38.224306203834296],[-85.54363542338778,38.22430669518994],[-85.54748849877937,38.224169930819265],[-85.54747634308688,38.224135148022],[-85.55196058220162,38.223908877856346],[-85.55220366761212,38.22392322700216],[-85.55212083718395,38.22405982904748],[-85.55205176297741,38.22418034657307],[-85.55221001561843,38.22419181388466],[-85.55250732731812,38.22421327428543],[-85.55261168188106,38.22420936166945],[-85.55338288382036,38.2241799707481],[-85.55373003644462,38.224161507097925],[-85.55374015093847,38.224116953075395],[-85.55464919021128,38.22407494552685],[-85.5547136690751,38.22414548953008],[-85.55502414267788,38.224191196819376],[-85.55526306636555,38.22453507562463],[-85.55532900596563,38.22463019103339],[-85.55580012731944,38.225305818668154],[-85.55579811065871,38.22544640208515],[-85.55569362988929,38.2256130686902],[-85.55554193862139,38.22588480932716],[-85.55554856837665,38.22609767159433],[-85.55565137708379,38.22633415393965],[-85.55628444709978,38.22784851610696],[-85.55656937354149,38.228530085899685],[-85.55674563482285,38.22895261394988],[-85.55687133475644,38.2292022594851],[-85.55698816548676,38.22918523720988],[-85.55713193201295,38.229146959921806],[-85.55752840074616,38.229041396236454],[-85.55769729720902,38.22899647578309],[-85.55802599977943,38.22890892677335],[-85.55809809515523,38.22888971533635],[-85.55835085768341,38.228822428354384],[-85.55863466735885,38.228746872445534],[-85.55886565428777,38.228685366669175],[-85.55917568934763,38.22860283330985],[-85.55937678811382,38.22854925907078],[-85.55944613844436,38.228530811812675],[-85.55971664868659,38.22845879069594],[-85.55978904838591,38.22843948321466],[-85.5599871572574,38.22838676895744],[-85.56025766644099,38.228314746600766],[-85.56031920886966,38.22829835312159],[-85.56055757301547,38.228234884554624],[-85.5607986204036,38.22817069902609],[-85.5608118569472,38.22816716228263],[-85.5610525381546,38.228103071152965],[-85.56106912799925,38.2280986748097],[-85.56130181885263,38.22803654172355],[-85.56154072572569,38.227974562235914],[-85.56177243636145,38.227914446625725],[-85.56198159084796,38.227855351547895],[-85.56209022398063,38.22782460932576],[-85.56209872475301,38.22814781705614],[-85.56209104933158,38.22831339324402],[-85.56208154761286,38.228573348016944],[-85.56207695213786,38.22870195437418],[-85.56207401910918,38.22889609775663],[-85.56206738034719,38.229323519373516],[-85.56206524305821,38.22946857401813],[-85.56206343251606,38.22958093496615],[-85.56205984376878,38.22976882636594],[-85.56205794647374,38.22986729158811],[-85.56205380004863,38.2300830200928],[-85.56204964926407,38.2302999991164],[-85.56204377775427,38.23049884888736],[-85.56203292869121,38.2308327002667],[-85.56188308459751,38.23105478499061],[-85.56183572574271,38.23112509842422],[-85.56172938284834,38.23128292055704],[-85.56160847886015,38.231462019100206],[-85.56152428836825,38.23158549911438],[-85.56149608292637,38.23162675528192],[-85.5612939895897,38.23192303865394],[-85.56119084587142,38.23206846089922],[-85.5610105534054,38.23234814404319],[-85.5608890432559,38.23252440369936],[-85.56083012253168,38.23261003623554],[-85.56073785808483,38.232743839505126],[-85.56061903837322,38.232916305607304],[-85.56055020610937,38.23301600960241],[-85.56051955247754,38.23306053029945],[-85.56036493867438,38.23328472080143],[-85.56019704600739,38.23352855422379],[-85.56012665795815,38.23364022746842],[-85.55997180275331,38.23388619693424],[-85.5597480009674,38.234204127924556],[-85.55982295126559,38.23442709907304],[-85.55999106348676,38.23485528180862],[-85.56005295751288,38.235011978552464],[-85.56013925579887,38.235231409760516],[-85.56022488916301,38.23544886941797],[-85.5603116750154,38.23566921483056],[-85.56039870332911,38.235890090320005],[-85.56048137058285,38.23609999582575],[-85.56056930793213,38.23632313223292],[-85.56065318796546,38.23653621272516],[-85.56073634109306,38.23674741707763],[-85.56082107044793,38.23696242233841],[-85.56090604314439,38.23717805318191],[-85.56099218781894,38.23738810796176],[-85.56108130260006,38.23760499580495],[-85.5611683583351,38.23781697453889],[-85.56125644460906,38.23803131175757],[-85.56134337924452,38.23824324329252],[-85.561430376034,38.2384547414862],[-85.56150616497828,38.238639393788006],[-85.56165558514742,38.23899479833659],[-85.56172868940948,38.239180407519456],[-85.5618113636953,38.239390937169226],[-85.56187993740284,38.239560768587495],[-85.56190350220913,38.23961912713911],[-85.56199544243229,38.23982991191894],[-85.56208823111515,38.24004281342057],[-85.5621812020075,38.24025614758681],[-85.56227235609482,38.240465392020184],[-85.56238496434169,38.24072390435711],[-85.56283188067118,38.24053171527209],[-85.56296663379418,38.240473607275476],[-85.56337696068765,38.24030895655111],[-85.5635420916672,38.24024272227715],[-85.56363460464348,38.240205557382495],[-85.56376153362935,38.24015469700723],[-85.5638648479596,38.24011322161142],[-85.56408294681785,38.24002567474431],[-85.56431757632656,38.239933970248806],[-85.56437853882274,38.23990959306477],[-85.56453115742283,38.23984862642428],[-85.56476444808696,38.239755572002785],[-85.56507902129883,38.2396299987148],[-85.5652646473224,38.23955744767984],[-85.56535660674548,38.23952167525958],[-85.56557231463145,38.23943820777083],[-85.5657502504813,38.2393693460388],[-85.56600946454066,38.23926902181416],[-85.56624646631647,38.23917736492151],[-85.56645167651129,38.239097967187526],[-85.56667049445477,38.23901325288031],[-85.56687191981585,38.23893543424468],[-85.56715448499595,38.23880831478522],[-85.56725964551684,38.239175184219626],[-85.56730933719786,38.239344117494504],[-85.56735985546645,38.239499060974424],[-85.56739228276976,38.23959868536183],[-85.56740901439835,38.23966097487402],[-85.56746950029486,38.23985314701186],[-85.56753191925829,38.24005181442128],[-85.56755375521782,38.24012098701714],[-85.56758913903974,38.240233692453224],[-85.56764883789418,38.24042346038816],[-85.5676631025656,38.24047324520088],[-85.56769797647743,38.2405945566959],[-85.56774747751112,38.24076699956998],[-85.56777309914808,38.240858535309364],[-85.56780405658053,38.24096171427754],[-85.56785563173891,38.24113406477943],[-85.56793173079366,38.241373234971334],[-85.56794509947333,38.24141547010055],[-85.56800728901511,38.24160956893931],[-85.56811235568966,38.241943789927134],[-85.56816782493794,38.242119606821916],[-85.56825575402512,38.242407933350414],[-85.56834096501403,38.242686495501935],[-85.56840535489003,38.24290410802162],[-85.5684728894433,38.243132207099535],[-85.5685398790704,38.243358622292426],[-85.5686215019145,38.24363429378395],[-85.56878523275071,38.244187463521634],[-85.56883027741327,38.244339561544855],[-85.56893735187938,38.24470359379475],[-85.56903590145974,38.24503881366224],[-85.56909853724817,38.24525224071174],[-85.56911951810247,38.245323334255346],[-85.569222785619,38.24567471624144],[-85.56952944380696,38.24570085899342],[-85.57164835538921,38.24586869685767],[-85.57204193570755,38.245902416814985],[-85.57190757243099,38.245420598118166],[-85.57180427858462,38.24504993877144],[-85.57178632781674,38.244985676844834],[-85.57174039184724,38.24482107781156],[-85.57166393591582,38.24454628219405],[-85.57160337656003,38.24432882149397],[-85.57159050273582,38.24428259720719],[-85.57149543187475,38.24394108604127],[-85.57142907010684,38.24370289435645],[-85.57137250148729,38.243499526934166],[-85.57135454087822,38.24343915975277],[-85.57130302016859,38.243265753256765],[-85.57132291032153,38.24320890471365],[-85.57133911795373,38.24316262879143],[-85.5712728599253,38.242932080876514],[-85.57119832117411,38.2426728175716],[-85.57135858853088,38.24267570395651],[-85.57158121979394,38.242679741902506],[-85.57180671596053,38.24268388014678],[-85.57225772510829,38.24268475127147],[-85.57287193441445,38.24268605698982],[-85.57287184651305,38.242519892568005],[-85.57287138416412,38.24190172695202],[-85.57287123119089,38.2417118112487],[-85.57323967463645,38.24166894577567],[-85.57338291623927,38.241652283755926],[-85.57451738150837,38.24152391513345],[-85.57732804150604,38.24117793187641],[-85.57732446751784,38.24083054919863],[-85.57733821055199,38.2405333383864],[-85.57730648836277,38.240283084199476],[-85.57731728520126,38.239838359959535],[-85.57732328441593,38.239645712420646],[-85.57733215064295,38.239426384362034],[-85.57731886074397,38.23924471840771],[-85.57731292386015,38.23915080967435],[-85.57731635146165,38.23883310209647],[-85.57731223954212,38.23853346129413],[-85.57730684247413,38.23823530968333],[-85.57731032555985,38.23789394643622],[-85.57732443638544,38.23616645139332],[-85.57732997038114,38.235756624965774],[-85.57733232386988,38.23550666072846],[-85.57733403982859,38.23532102610766],[-85.5773363750452,38.23505303083836],[-85.57733907331009,38.23476027580841],[-85.57734163987531,38.23447203889299],[-85.57734505549723,38.23418510238248],[-85.5773486063967,38.23389258818187],[-85.57734996020785,38.2337834005981],[-85.57737498110323,38.23361496414794],[-85.57742043992398,38.2333092416454],[-85.57744126176743,38.23313829886035],[-85.57746139403487,38.2328190285097],[-85.57748969798082,38.23244601674254],[-85.57749156527268,38.2322994227459],[-85.57750619411708,38.23177969873834],[-85.57751189178342,38.23135112117672],[-85.57752535474151,38.23125036437001],[-85.57758240358699,38.23067992909793],[-85.57764390606587,38.23005488103463],[-85.57775780294601,38.228945646065334],[-85.57772930347627,38.2287259259572],[-85.5777615273246,38.22839609544653],[-85.57778981474983,38.228106886375784],[-85.57778752404427,38.22804418669841],[-85.5778306775796,38.22757527563893],[-85.57785712976278,38.22728866039742],[-85.57787620197757,38.22710867622547],[-85.57790138775238,38.227025052849754],[-85.57796862590352,38.226838455348606],[-85.57817132460389,38.226222122110336],[-85.57839728424348,38.225535095476936],[-85.5784478904694,38.225370542654055],[-85.57870175807302,38.2247890921689],[-85.57958864293263,38.22244002048952],[-85.58000222606911,38.22275866562734],[-85.58049624409828,38.22313944887068],[-85.58160588655828,38.22376742209756],[-85.58264794360878,38.22418614080876],[-85.5822689254616,38.223721919264214],[-85.58148367446765,38.22276030504406],[-85.5807075595405,38.22180980461436],[-85.5815837565197,38.22137189002976],[-85.58187877747407,38.22172800762201],[-85.58188887152802,38.22173831100324],[-85.5819009180537,38.22174731886559],[-85.5819147365593,38.221754550736854],[-85.58192965562114,38.2217599570103],[-85.58194561596008,38.22176348985017],[-85.58196206743082,38.221765003418966],[-85.58197852509227,38.22176430512182],[-85.5819947428481,38.22176163606824],[-85.58201017364998,38.22175699458052],[-85.58202451006343,38.221750475724775],[-85.58235189851038,38.221571072125805],[-85.58190567756266,38.22102381442506],[-85.58153172710004,38.2205650778649],[-85.58126776416292,38.22070100889067],[-85.58117804334663,38.22075780845677],[-85.58087357704518,38.220935077498716],[-85.58030395182013,38.22131549040504],[-85.58022570176028,38.22136624669619],[-85.5801501978908,38.22141518061903],[-85.57992289382302,38.22106136792348],[-85.57984931557087,38.220962553115164],[-85.57977157314403,38.220872819415206],[-85.57969335959973,38.22077601780099],[-85.57826963882738,38.219062590927486],[-85.5777358479458,38.218402009481665],[-85.57776022507588,38.21785493886954],[-85.57779234657652,38.217410532081864],[-85.57780018853643,38.21726216765979],[-85.57782046267096,38.216880198622974],[-85.57782798781926,38.21673736295516],[-85.57783684952237,38.216569912986664],[-85.57789066095255,38.21555386173777],[-85.57793235740827,38.21539179591316],[-85.5779603672217,38.214567499483984],[-85.57801530545188,38.214136875101076],[-85.57803837064536,38.213967666238034],[-85.57807746042828,38.21366895202994],[-85.57809681946075,38.21352089248703],[-85.57848346255156,38.21363405771604],[-85.57863333382379,38.21367802867422],[-85.5787802819751,38.21372098432379],[-85.57886237303877,38.21374499951172],[-85.57909049777874,38.21381254520228],[-85.57930461018813,38.21387858002872],[-85.57939912156705,38.213907949201456],[-85.57954040070638,38.213951954363814],[-85.57970523608113,38.21361284115698],[-85.57978420884669,38.213456981877776],[-85.57994826662357,38.21311094322729],[-85.58006141565623,38.213143896596584],[-85.58019557617621,38.21318289038408],[-85.58027425630651,38.21320584106103],[-85.58043515597925,38.213118181452344],[-85.58068105049786,38.2129843416491],[-85.58090003656308,38.21286503062541],[-85.58108289974561,38.21276542855597],[-85.5812547865387,38.21266917746256],[-85.58133776964064,38.21262265718074],[-85.58144418421057,38.2125629971712],[-85.58154120219862,38.21250861236858],[-85.581624795602,38.21246170894044],[-85.58176977255874,38.21238051541391],[-85.58207931084958,38.212206999834414],[-85.58224265086155,38.21211640856051],[-85.58258982953781,38.21192409764977],[-85.58285073045779,38.211779504361175],[-85.58293857126277,38.21106876039658],[-85.58324772868961,38.21089841528486],[-85.58340753706801,38.21077752591661],[-85.5838033941787,38.210478109665],[-85.5842898201693,38.21106267956773],[-85.58555170682104,38.21035977487534],[-85.58578436302888,38.21063406029822],[-85.58590428335962,38.21077260206286],[-85.58610388062085,38.211007414551865],[-85.586298008101,38.21123563303437],[-85.58648848948124,38.2114597584464],[-85.58668255498806,38.21168970604067],[-85.58686878123234,38.21191041206428],[-85.58716380387473,38.21226017009499],[-85.58731940169307,38.212443810600064],[-85.58770151837753,38.212900570679686],[-85.58776454942989,38.212863827362085],[-85.5881354047123,38.213233832508365],[-85.58856038908382,38.21365453935169],[-85.58895302093735,38.21404664077868],[-85.58885001600724,38.214109774580066],[-85.58906616521585,38.21430787101057],[-85.58929591224529,38.21453031434892],[-85.58937428994567,38.21461061867591],[-85.58966262583122,38.214878769448774],[-85.58973742993604,38.21494911568975],[-85.58981764792922,38.21502432633152],[-85.59013061926835,38.21531510646185],[-85.59041750394981,38.21558094509461],[-85.59049284012788,38.21563143513232],[-85.59057154995669,38.215587451488695],[-85.59101658483372,38.21590788050303],[-85.59133091259457,38.21577136989138],[-85.59236663741171,38.21638803807268],[-85.59354008839583,38.216871841567524],[-85.59496962429792,38.217477131315725],[-85.59617694228325,38.21789835184913],[-85.59658245837518,38.21804561989403],[-85.59816564036028,38.21843490094645],[-85.59894490425428,38.218506865086894],[-85.60000538408583,38.218599999654494],[-85.60268773285766,38.217189474026455],[-85.60262752824434,38.21712540423702],[-85.60204843141031,38.21637621628169],[-85.6022287680373,38.2162805688679],[-85.60444493264495,38.21510732165161],[-85.6040446722308,38.21461506313652],[-85.60339476948347,38.213804105481834],[-85.60182701492526,38.21320331178541],[-85.60234679434045,38.21224831735506],[-85.60272912828863,38.21154576292228],[-85.60309011153451,38.21088106814708],[-85.60334900925649,38.210404913006506],[-85.60284900016981,38.209560241769935],[-85.60264998729676,38.209618122722446],[-85.60257993105515,38.20963846940151],[-85.60223775428804,38.2097379535694],[-85.6021672704645,38.20975844452547],[-85.60206349614728,38.20978860534995],[-85.6019028945951,38.209835330432774],[-85.60176466984102,38.20987549636005],[-85.60159864191401,38.20992380173547],[-85.60135712866447,38.20999398396549],[-85.60122347689567,38.210032857611026],[-85.60095586681479,38.21011065091247],[-85.60085873660297,38.21013889638281],[-85.6005236904642,38.210236316851685],[-85.60044474363846,38.210132315515516],[-85.6002700125885,38.20990457816013],[-85.60012676541147,38.2097177961374],[-85.59989081611421,38.20941983205097],[-85.5990352378328,38.20827567978095],[-85.59939763268589,38.20809107996663],[-85.59956629486761,38.20800513490284],[-85.59998889302551,38.20778993451665],[-85.60014108372853,38.207712429640914],[-85.60036410272185,38.2075940498176],[-85.60056778345036,38.20748598196319],[-85.60103356785893,38.20724611968209],[-85.6012455753912,38.20714758168657],[-85.6013812825438,38.207084574498765],[-85.60101152957677,38.20681418597677],[-85.60122255453489,38.20668934566553],[-85.60128197673077,38.20665316807979],[-85.60146176806514,38.206544828963295],[-85.60153638162765,38.20649982280338],[-85.60171293915865,38.20639344966306],[-85.60197497002149,38.20623424768213],[-85.60211986575946,38.206146057313354],[-85.6022265676015,38.20608152176579],[-85.60250152904537,38.2059152189026],[-85.60270590021487,38.20579373364597],[-85.6027567880401,38.20575874657706],[-85.6030515423135,38.20565732699277],[-85.60429245741412,38.20519195351888],[-85.60405464207555,38.20475816661571],[-85.60399253277414,38.20464514883459],[-85.60391342587042,38.204499800328314],[-85.60383562863528,38.20437012756182],[-85.60376531762459,38.20424488685938],[-85.60367569771216,38.2040858709718],[-85.60358597083531,38.203919401148525],[-85.60343466654597,38.20364909739314],[-85.60262884984084,38.20358592814228],[-85.60233631337192,38.20355772506269],[-85.60201471616243,38.20352736851913],[-85.60173332627511,38.20350086090709],[-85.60144858614255,38.203474010552966],[-85.60137603036532,38.2034671882434],[-85.60108221393827,38.203439461569324],[-85.6008183705837,38.203414607331545],[-85.60055501370692,38.203389801771834],[-85.6005479319195,38.2031863644724],[-85.60058509419055,38.20279883546828],[-85.6008098276357,38.20074387106324],[-85.60090581468727,38.19985979147309],[-85.60098988171113,38.19908373388845],[-85.60098710445001,38.19892040134979],[-85.60098735724061,38.19891621845691],[-85.60099416504772,38.19880347853916],[-85.59938665051702,38.19871345413075],[-85.59915492896418,38.19869056150968],[-85.59920823628798,38.19797865272703],[-85.5992448263934,38.19739649218496],[-85.5992512102887,38.197284040089016],[-85.59926352718531,38.197190154676434],[-85.59928291067436,38.197096470174046],[-85.59929447846386,38.19704056698245],[-85.59898067370568,38.197027810716776],[-85.59903342352361,38.19652851332475],[-85.59907350572117,38.19653231433467],[-85.59912887654907,38.19653757819519],[-85.59925099494018,38.19628824389508],[-85.59937169925117,38.19610415336816],[-85.59949509223541,38.19591583426435],[-85.59950520628753,38.19502135621924],[-85.59950119755622,38.19426956326901],[-85.59950249094928,38.19369639660731],[-85.59937976588621,38.19353036221749],[-85.59892255176672,38.19349318954043],[-85.59895599488239,38.19313849394998],[-85.59850083265002,38.1931118519286],[-85.59848344058558,38.19330357563528],[-85.59822546158716,38.19334781503105],[-85.59783938907896,38.19331976891492],[-85.59763208952178,38.1933090200625],[-85.59762196124824,38.19337511771128],[-85.59728129685766,38.19339617094459],[-85.59675827097928,38.193366645140486],[-85.59607442862844,38.19332801428974],[-85.595781789491,38.19363063653994],[-85.5953138249326,38.19444888535737],[-85.5951143574812,38.1947975935457],[-85.5946123844797,38.19567185691828],[-85.5941848741588,38.19639091640475],[-85.59409530041549,38.19654148236837],[-85.59387455724028,38.19691247911831],[-85.59343977166094,38.197643199079934],[-85.59343569062307,38.19767141752831],[-85.59325554453252,38.197951055041955],[-85.59282937462582,38.197944575420244],[-85.59281483846262,38.19830352586026],[-85.59282324531488,38.19833272221799],[-85.59284348052923,38.19835803939304],[-85.59287323375544,38.19837658939774],[-85.59292798386079,38.19838748010075],[-85.5929715482195,38.198387346049095],[-85.59297193436029,38.19846326515725],[-85.59254223728473,38.198451875831914],[-85.59252664139551,38.198451422598644],[-85.59253359593431,38.198304930220935],[-85.59254234718456,38.19814416072454],[-85.59255420728176,38.19792569891334],[-85.59256619584296,38.19770425594255],[-85.59257786377631,38.19749016896825],[-85.59258972644916,38.19727093768857],[-85.5926012085974,38.19705824424396],[-85.59212092373559,38.19703140012534],[-85.5918035333691,38.1970147728737],[-85.59139311988028,38.19699335570743],[-85.59106318058966,38.19697613301413],[-85.5907200120596,38.19696292973975],[-85.59029484456744,38.19694653793601],[-85.5899703788897,38.19693407942173],[-85.58963635734243,38.196916942725],[-85.58925408925289,38.19689733571755],[-85.58890081810932,38.19687916168561],[-85.58854662884518,38.196863244082145],[-85.5881598479749,38.19684583926216],[-85.5878197814633,38.19683051633159],[-85.58817635441113,38.19341660809589],[-85.58819394047303,38.19341746105649],[-85.58821928193784,38.193418689519326],[-85.58825258199386,38.193420303668056],[-85.58831271889454,38.19342321857117],[-85.58843578369648,38.193429183641136],[-85.58870745460409,38.193442351938245],[-85.58929831773091,38.19347099016932],[-85.58993757791696,38.19350197042969],[-85.59013345763903,38.193511462277364],[-85.59214679913576,38.19360900800603],[-85.59226117421541,38.19361454845144],[-85.59244671926963,38.193623536154234],[-85.59282709345096,38.19364195999854],[-85.59283628606553,38.19364240558472],[-85.59287080792451,38.19257324946191],[-85.59287105847426,38.19256550683015],[-85.59287174055518,38.192544386218955],[-85.59287534168888,38.19243285681183],[-85.5928810916812,38.19225480328289],[-85.59288171266857,38.19223556111824],[-85.59403926631914,38.19228815169156],[-85.59419872382755,38.19229539489727],[-85.59455995442595,38.19231180311307],[-85.59475538534561,38.192320680365874],[-85.5948281732598,38.19232398607362],[-85.59484236784523,38.19232463087635],[-85.59557298695874,38.19235781421528],[-85.59560506435561,38.192359270631115],[-85.59565629465932,38.19141171707584],[-85.59565735878019,38.19139203309367],[-85.5956661864143,38.19122875576903],[-85.59566993693848,38.19115938119188],[-85.59567828113526,38.19100505439848],[-85.59568749819736,38.19083457968502],[-85.59578674004867,38.190837796793645],[-85.5958368260901,38.19002352776247],[-85.59588320510228,38.1888471981549],[-85.5958836162004,38.18881276922815],[-85.59588213907125,38.188778369546625],[-85.59588213572765,38.188778330800375],[-85.59587876886242,38.18874398402334],[-85.59587353579843,38.18870987168078],[-85.59587351996377,38.18870980138418],[-85.59586639656091,38.18867579366485],[-85.59585745815878,38.188642217292056],[-85.59585743092748,38.18864213797087],[-85.5958465973323,38.188608719051715],[-85.5958340249715,38.188575914681806],[-85.59583398292648,38.18857582272766],[-85.59581951973716,38.18854325195232],[-85.59580341558073,38.18851146051641],[-85.59580336552987,38.18851137575955],[-85.59576585730531,38.188449336207064],[-85.59576579128607,38.18844924512255],[-85.59572163114213,38.1883900097196],[-85.59572156964576,38.18838993936336],[-85.59567106950692,38.18833392385888],[-85.5956710433023,38.18833389949837],[-85.59561455051899,38.1882814998656],[-85.59524207872855,38.187964878166255],[-85.59522123425744,38.18794417442099],[-85.59522120238141,38.187944132934476],[-85.59520464568179,38.187921198580405],[-85.59520462066824,38.18792115079606],[-85.59519810646607,38.18790908955831],[-85.59519270455463,38.18789649084256],[-85.59518855360525,38.18788359786997],[-85.59518569389407,38.18787063270792],[-85.59518568943207,38.187870583148495],[-85.59518410449445,38.1878575845065],[-85.59518377168327,38.18784449382441],[-85.59518377181772,38.18784442985543],[-85.5951837768005,38.18784423164758],[-85.59518378148596,38.18784417489232],[-85.5951847547947,38.187830964514404],[-85.59518699648183,38.18781790939076],[-85.59535940035838,38.187039752484324],[-85.59541389021389,38.187041897781064],[-85.59541426361972,38.18704020623896],[-85.59739097205336,38.18711800455498],[-85.59743776182675,38.18684596520676],[-85.59802190775324,38.18377475141638],[-85.59820532315199,38.18378738536001],[-85.59850699286847,38.18380815864566],[-85.59857958414713,38.183813151139],[-85.59873423625733,38.18382378689902],[-85.59900539311244,38.183842452132396],[-85.59925072429071,38.18385935304478],[-85.59977017730402,38.18384563825341],[-85.60027418591031,38.18387796308336],[-85.6007425067325,38.183906249396635],[-85.60092248964621,38.18388714784754],[-85.60107523658245,38.18387094529705],[-85.601543363251,38.18357261654068],[-85.6021646298984,38.18305960386691],[-85.60250949875895,38.18274010629969],[-85.6028514226455,38.18242940116365],[-85.6033547198592,38.18204999677457],[-85.60340705651883,38.182013327999044],[-85.60371997958899,38.18179389102152],[-85.60386872367356,38.18170546129587],[-85.60402117497387,38.18165151089516],[-85.604521274432,38.181497259490946],[-85.60480580887858,38.181431305553495],[-85.6049302016656,38.18139679230695],[-85.60526510239185,38.18130363822807],[-85.60548467230555,38.18125298907241],[-85.60550227245044,38.180913608471606],[-85.60552974134373,38.18060443520672],[-85.60555527720682,38.18031756861682],[-85.6055796311637,38.18004368182002],[-85.60560440456989,38.179773498523076],[-85.60562942561627,38.179500334174],[-85.60565407483182,38.179231015614086],[-85.60567946990646,38.1789537648438],[-85.60570455391465,38.17867963915564],[-85.60572932601595,38.178409071018265],[-85.60575447204145,38.17813456063947],[-85.60578042495648,38.17785182890741],[-85.60579586258109,38.17768255512804],[-85.60582305805714,38.177387036405385],[-85.6058348837048,38.17725824178472],[-85.60584882351067,38.17710709289815],[-85.60587396534218,38.176833687894785],[-85.60589904555366,38.176560763913265],[-85.60592431413292,38.1762853885783],[-85.60595430878178,38.175959869692605],[-85.60597017716204,38.17578761590008],[-85.60600546283882,38.17540363719354],[-85.60551782153821,38.17537731842639],[-85.60530923235397,38.1753661011244],[-85.60480575708333,38.175338895100474],[-85.60469217526932,38.17533279378082],[-85.60446306864478,38.175317366527544],[-85.60409511056058,38.17529258388138],[-85.60374871100096,38.17526926922655],[-85.60349261880727,38.17525553748161],[-85.60337453034877,38.175249285154116],[-85.60322386007878,38.17524121283074],[-85.60302020489185,38.17523038233166],[-85.60295899876138,38.17522708432447],[-85.60270095744461,38.175213349340694],[-85.60243877591344,38.17519936716393],[-85.60225284314359,38.17518942240057],[-85.6021731229007,38.17518518815642],[-85.60193633831302,38.175172582679934],[-85.60164973494754,38.175157270755626],[-85.60155156129667,38.17515200293842],[-85.60131112273054,38.17513919971273],[-85.60101899565147,38.17499401243512],[-85.60094379200845,38.174955356707606],[-85.6006600132061,38.17480950602967],[-85.60058996370803,38.174872403047566],[-85.60052998192243,38.17492627414744],[-85.60043424275774,38.17501226577618],[-85.60035000634649,38.17507216426633],[-85.60027241990149,38.17512726260219],[-85.60021258287303,38.17516978591166],[-85.60005196059974,38.1752929098676],[-85.60000309745088,38.175330351060595],[-85.59985698330428,38.175477004156456],[-85.59962252728172,38.17563623859584],[-85.59951409051581,38.17573524324632],[-85.59920623895088,38.175506466752346],[-85.59901952123802,38.17534472555468],[-85.59867997042488,38.1751011464622],[-85.59880603932602,38.174987452150816],[-85.59864824435559,38.1749789801643],[-85.59838996274972,38.17496523455914],[-85.59808186255493,38.17494882866402],[-85.59790457898366,38.17493941704776],[-85.5978154808273,38.17493463892475],[-85.59765433655159,38.1749260171431],[-85.59758807607373,38.17492208546336],[-85.59713351657864,38.17489486115513],[-85.59691769208747,38.17487847510469],[-85.59659309400186,38.174859013976594],[-85.59633639944376,38.174843727974235],[-85.59609931438897,38.174829523790805],[-85.59581277892846,38.174812418368866],[-85.59557039669278,38.17479787015069],[-85.59528483493833,38.17478081247238],[-85.5950338652623,38.17476581944569],[-85.59477589336137,38.17475038332184],[-85.5945118856729,38.174737343405425],[-85.59427254198955,38.1747255850473],[-85.59397650044237,38.17471096286306],[-85.59386267596318,38.17470552384521],[-85.59371967839634,38.174698699194124],[-85.59352966595482,38.174689601152814],[-85.59346468350891,38.17468653379117],[-85.59311614391896,38.174669868587365],[-85.59290673682194,38.174644733433205],[-85.59256209387878,38.174628696150734],[-85.59249047403836,38.17462537975376],[-85.59228334762129,38.17461572803144],[-85.5920712334808,38.1746029437917],[-85.59198572985633,38.17459778045698],[-85.59186837563756,38.17459070042698],[-85.59172343435253,38.174581948074234],[-85.59166052514662,38.174578161714194],[-85.59147612042334,38.17456704789008],[-85.59124043885657,38.1745527880889],[-85.59103721616597,38.17454049505563],[-85.59096364936852,38.17453611646666],[-85.59082833076924,38.17452795348753],[-85.59068880825646,38.174519976596535],[-85.59062273185516,38.17451623316769],[-85.59043802124995,38.17450579034157],[-85.59020617504854,38.17449254365039],[-85.59002852981736,38.17448244669985],[-85.58992183257187,38.174476436905074],[-85.58983620774079,38.174471512411955],[-85.58965874574575,38.174461175493775],[-85.5892133262971,38.1744343664874],[-85.58900626711801,38.17442206384253],[-85.58848898594078,38.1743912601942],[-85.58842315411621,38.17438746811781],[-85.58821036997081,38.17437530040992],[-85.58800404051665,38.17436347903068],[-85.58791841583803,38.174358601801046],[-85.58780142687694,38.174351854297825],[-85.58767420811553,38.17434461151042],[-85.58758547720579,38.17433953696506],[-85.58747165507023,38.1743329862953],[-85.58737835711798,38.17432766475438],[-85.58724973606434,38.174320275424584],[-85.58716892279936,38.174315644836724],[-85.58705065568621,38.17430889482971],[-85.58693793035731,38.17430239290956],[-85.58684700623365,38.174297170628066],[-85.58673379462861,38.174290715593884],[-85.58663629518645,38.17428452272584],[-85.58644836167593,38.17427243573739],[-85.58622041755828,38.17425783966314],[-85.58602943944274,38.1742456027329],[-85.5857976589884,38.17423071220912],[-85.58557659636895,38.17421655782147],[-85.58499331013135,38.174179204157035],[-85.58446684211778,38.17414543649532],[-85.58368335143759,38.1741092374246],[-85.5837611780357,38.17395274792595],[-85.58353329707114,38.173938146755894],[-85.58332855636021,38.17392516529671],[-85.58312375544965,38.1739120869932],[-85.58291304788838,38.173898663020694],[-85.5827050791407,38.173885435357626],[-85.58249169245369,38.17387176628127],[-85.58228421223275,38.173858587222504],[-85.58207752313523,38.17384535936946],[-85.58186109558208,38.173829954957206],[-85.58163821140302,38.17381415533475],[-85.58142647203319,38.173798996463326],[-85.58101436750329,38.17377585841855],[-85.58070140352805,38.173759544412846],[-85.5798453548214,38.17370739748912],[-85.57965255127266,38.17369543593729],[-85.57944172183923,38.17368243896982],[-85.57923570269631,38.17366964048309],[-85.57903924528685,38.1736574807442],[-85.57878963249124,38.17363822328575],[-85.5785751572639,38.17362161287678],[-85.57836524993418,38.17360539342821],[-85.57815101777399,38.17358887900687],[-85.57802118720976,38.17357888215557],[-85.57793708763452,38.1735735665414],[-85.57752648283571,38.17353532082576],[-85.57716477768837,38.17350027067885],[-85.57639014076183,38.17343336149268],[-85.5760860920333,38.17340872962446],[-85.57584581834966,38.1734071739957],[-85.57544220864648,38.1733736434568],[-85.5751991252678,38.17334991649918],[-85.57499312629348,38.17332980281085],[-85.57478073299711,38.17330905400693],[-85.57462571055203,38.173289687353964],[-85.57423219088372,38.17323957973903],[-85.57389975103841,38.1731935044971],[-85.5733409764581,38.17312497309073],[-85.57315747074844,38.17309714770576],[-85.5728865732084,38.173040536421084],[-85.57287431199428,38.1731753845897],[-85.57290556836752,38.17352517134634],[-85.57291997730067,38.173764107112376],[-85.5729343886401,38.17400208062065],[-85.57292413611202,38.174288867298266],[-85.57290307737406,38.174586552212666],[-85.5728708134868,38.17485830548534],[-85.57285297007,38.17500910784859],[-85.57283394613088,38.17516952547128],[-85.57281398775501,38.17533878838449],[-85.57277420048493,38.175699286515595],[-85.5727204177702,38.17620573729831],[-85.57270222612972,38.17639947604924],[-85.57267451303667,38.17662690517256],[-85.57264995867563,38.17688342707033],[-85.57262882920381,38.17710875053602],[-85.57260367010876,38.1772868522226],[-85.5725467277859,38.17746029048647],[-85.57245898533559,38.17762550879993],[-85.57234233717328,38.177779239395335],[-85.57219916616484,38.17791826658093],[-85.57203234398342,38.178039756507054],[-85.57186162401293,38.17816051863898],[-85.57170847375143,38.17829510638436],[-85.57157454054244,38.178441983427476],[-85.57147376373862,38.178580207849826],[-85.5713900849062,38.1787254297741],[-85.5713379905144,38.17880718409664],[-85.57128576412394,38.178918364102366],[-85.57125155575682,38.17903380231307],[-85.5712358594701,38.17915172096251],[-85.57078684538095,38.17911608687207],[-85.57050932624057,38.1790938847486],[-85.57028363307874,38.179075800746915],[-85.5701984331284,38.179069564380484],[-85.57004703409802,38.17905856375154],[-85.5699057451494,38.17904825226064],[-85.56983461388398,38.179043094809025],[-85.56961378760325,38.17902703603385],[-85.56924984676616,38.17900051672462],[-85.5690472393993,38.178982320596795],[-85.56876035012466,38.17895649431348],[-85.56869756385072,38.17895086874926],[-85.5685274760234,38.178935655176616],[-85.56846012410928,38.17892958910803],[-85.56830166716114,38.17891535441196],[-85.56818194222997,38.17890454422481],[-85.56807482340935,38.178894956119656],[-85.56790510120797,38.17887969356089],[-85.56766352073853,38.1788580212237],[-85.56768475899877,38.17861952480583],[-85.5673448764076,38.17859462334411],[-85.56687526339316,38.178541392424044],[-85.5662487175351,38.17847459848317],[-85.56577337249635,38.17842423920178],[-85.56539369391679,38.17838402827575],[-85.56509488118047,38.17835389482718],[-85.56479862479762,38.17832400608932],[-85.56457191099766,38.17830114881185],[-85.56434348682102,38.178280836376935],[-85.56385533528534,38.17823737327542],[-85.5633361606543,38.17817837678514],[-85.56343816893667,38.17736727075067],[-85.56332649700269,38.177400750486186],[-85.56298337460994,38.17750338993697],[-85.56292247904834,38.17752156451189],[-85.56257557707318,38.17762438870492],[-85.56227232067435,38.17771425125691],[-85.5620600096322,38.17777714002403],[-85.5617523623194,38.17786829256879],[-85.56100856805655,38.178088662521205],[-85.56079332827301,38.17815245791994],[-85.56016819515332,38.178344740658204],[-85.55952300200627,38.178543238748766],[-85.55924965887553,38.17862732411848],[-85.55823128451802,38.178924938917035],[-85.55551152308512,38.17521336562394],[-85.55685501106024,38.17463057572618],[-85.55586270490252,38.17328845391494],[-85.55529795141884,38.17200362680649],[-85.55190638527691,38.17302171581016],[-85.55232636130921,38.17389455349659],[-85.553610916709,38.17350939983391],[-85.55384330511006,38.1740681409617],[-85.55364472155105,38.17438678016387],[-85.55395019354562,38.175890632306015],[-85.553222631867,38.176199797816395],[-85.55316730536933,38.177688934567904],[-85.55309775640086,38.17769054953128],[-85.55299745654285,38.1786280116857],[-85.55433222209052,38.17864895784693],[-85.55440943733836,38.17792222478199],[-85.55474436473185,38.17798498010172],[-85.55515328395231,38.17773424148888],[-85.55552127200542,38.17816209903933],[-85.55510922046192,38.17840132194714],[-85.55494207620366,38.17849499661067],[-85.55484917264766,38.178546481909194],[-85.5546708064675,38.178645378647595],[-85.55459120092824,38.17868957698398],[-85.55456313880975,38.17870578242681],[-85.55448078206047,38.17875353409972],[-85.55428275879993,38.17886831260144],[-85.5541425687748,38.178949625189304],[-85.55366593232115,38.17922597250765],[-85.55357893781444,38.17927636111496],[-85.5535489102427,38.1792756859448],[-85.55301261643271,38.17926363858875],[-85.55279657520732,38.179258806873136],[-85.55279594495686,38.17926697948727],[-85.55273693877217,38.180011124204235],[-85.5527074499038,38.18001376711733],[-85.55172688779255,38.180103480390855],[-85.54976002872021,38.18028330530147],[-85.54964828832121,38.18029354930936],[-85.54969835538117,38.1806081309809],[-85.54985604163953,38.18088337168435],[-85.54999668071966,38.18102107262767],[-85.55007181823152,38.181076973783206],[-85.5501314036963,38.18107231466852],[-85.55019884834653,38.181067091279594],[-85.55107301211207,38.180999473940105],[-85.55194686824318,38.18093189647406],[-85.55257068518681,38.18088365730015],[-85.55324927410416,38.18083117860585],[-85.55326535803265,38.18082990706342],[-85.55343059244066,38.180655696921285],[-85.55455160038755,38.180161986592715],[-85.55460691215467,38.18013765253321],[-85.55514157030365,38.18155369741619],[-85.55555622897762,38.18265336150443],[-85.55593244343997,38.18362136503268],[-85.55598717057075,38.18377387027499],[-85.55611718617189,38.184135602892454],[-85.5561815250531,38.1841077736188],[-85.55635057500383,38.18403506435456],[-85.55654895881163,38.183949180122596],[-85.55656188712668,38.183943575580585],[-85.55675447646819,38.183860230383495],[-85.5568329637531,38.18382622065789],[-85.55694383388101,38.183778176999866],[-85.55700646475809,38.18375111392034],[-85.55712849488805,38.18369827979538],[-85.557250524843,38.18364544554367],[-85.55732577866789,38.18361287358207],[-85.5574564065775,38.18355630326569],[-85.55752544117313,38.183526460916596],[-85.55771028392984,38.183446418939845],[-85.55774515829646,38.183434166517486],[-85.55791744902994,38.18335540211108],[-85.55814511783753,38.183250379180315],[-85.55830521483898,38.18317543978536],[-85.55856386237913,38.183057099385316],[-85.55866955327248,38.183008324935834],[-85.55872883341766,38.182980966304754],[-85.55890075826974,38.182901622341745],[-85.55905938704203,38.18282841212535],[-85.55909232014528,38.18281317483888],[-85.55911201904942,38.182804119398455],[-85.55922021086121,38.18275419434185],[-85.55938475428242,38.18267825156011],[-85.5595062403436,38.18262214445149],[-85.55955685933651,38.182598859177745],[-85.55977567017396,38.1825022807948],[-85.55986148122498,38.182461357732265],[-85.56001633253884,38.18238799509433],[-85.56021424018114,38.18229436273511],[-85.56062090931478,38.18210216353896],[-85.56076288921008,38.18203502937413],[-85.5611449512202,38.18186476109103],[-85.56138162705521,38.18175931291892],[-85.56157604116821,38.181672645353544],[-85.56177070265615,38.18158458314952],[-85.56193573252708,38.18150695455282],[-85.56210832316886,38.18142611674959],[-85.56228310984923,38.18134427218536],[-85.56259279669528,38.18119898277283],[-85.562776166294,38.1811187863537],[-85.56304655240253,38.181001944909596],[-85.5638331949763,38.18068373773074],[-85.56396906284483,38.180622359929835],[-85.56395225012145,38.18074325625559],[-85.56392904744675,38.18091030045192],[-85.56390559554046,38.181079267829276],[-85.56388084125956,38.181257223989185],[-85.56385850792559,38.181417538322755],[-85.5638350555291,38.181586120045296],[-85.56381349617187,38.181753551487226],[-85.56379168661185,38.18192329082545],[-85.56377031158645,38.18208952063278],[-85.5637481295143,38.182262046982146],[-85.56372858771911,38.18242592360241],[-85.56370457712262,38.182598784012875],[-85.56368276701606,38.18276808992351],[-85.56366120891317,38.182934751854944],[-85.56363964920423,38.183101558829875],[-85.56360464563318,38.18335748536846],[-85.56358175982446,38.18351866362886],[-85.56351597333939,38.183854932953714],[-85.56354155957091,38.18385405971746],[-85.56355258606875,38.183853692389484],[-85.56356339666199,38.18391472442679],[-85.56359426802808,38.18408839205697],[-85.56361084462064,38.18418179082311],[-85.56362898222962,38.184283990975075],[-85.56365721079125,38.18444299102472],[-85.56368531916317,38.184601268288816],[-85.56371336710691,38.18475911387687],[-85.56373120561938,38.18485963050328],[-85.5637417746619,38.184919699884986],[-85.56377084583384,38.18508288353628],[-85.5637878422089,38.18517883177348],[-85.56379426389402,38.1852169216207],[-85.56379558976032,38.18524649372768],[-85.56379910921525,38.18532453366604],[-85.56380302949063,38.185411999339095],[-85.56380407007916,38.18543431003329],[-85.56380897045818,38.18554408630188],[-85.56381122147263,38.18559332455431],[-85.56381393135378,38.18565386176135],[-85.56381889340346,38.18576363812019],[-85.56382269807527,38.18584898720905],[-85.56383129066072,38.18604031385943],[-85.56383446417873,38.18611027689227],[-85.56384968955057,38.186449557722135],[-85.56385269066843,38.186515481403156],[-85.56385459310256,38.186558132063055],[-85.56386041988786,38.18668714197262],[-85.5638662466958,38.18681615097651],[-85.56387201200026,38.18694511302815],[-85.56387276193716,38.186961846218686],[-85.56387916677294,38.18710335805353],[-85.56384879066552,38.1871186952856],[-85.56345298703324,38.187318472674264],[-85.56328539444239,38.187417254135596],[-85.56299822663846,38.18758474566712],[-85.56276241711461,38.18772645084256],[-85.5622957354178,38.18800693493559],[-85.56214375459153,38.18809823983273],[-85.56139451718687,38.18854852471248],[-85.56098573876008,38.188790246805254],[-85.56081322247785,38.18888204512089],[-85.56066595174579,38.18896393144322],[-85.56048226062839,38.18906609691457],[-85.56034109032687,38.189144626565515],[-85.56012586061536,38.18926260795336],[-85.55981111189855,38.18908833831953],[-85.55972807565107,38.189042431607035],[-85.55970714888353,38.1890308104938],[-85.55957693858178,38.188946171421826],[-85.55910510771517,38.188738279206845],[-85.5589106333986,38.1886515156379],[-85.55873350253205,38.188572473227055],[-85.55856574368698,38.18849758029633],[-85.55839530668828,38.18842152953784],[-85.55823594422172,38.1883503040953],[-85.55807183735746,38.18827705074918],[-85.55790693832056,38.188203460723685],[-85.55784615082149,38.1881763399103],[-85.55781158951297,38.18816094644157],[-85.55772814684583,38.188178023911135],[-85.55769316025314,38.188185178417704],[-85.55738133206012,38.18824909956836],[-85.55696960423957,38.18835603247203],[-85.55664497570154,38.18842252649135],[-85.55600430816052,38.18855379517571],[-85.55623957124483,38.189158651283556],[-85.55631160525115,38.18937736470291],[-85.55456913515229,38.188990274160965],[-85.55354998694392,38.18888501643948],[-85.55254484257115,38.18867297534218],[-85.55219626373747,38.188699776055394],[-85.55219584355694,38.1886998086886],[-85.5517614185887,38.18847665834034],[-85.55163059419307,38.18838260237817],[-85.55030051525311,38.1880457151526],[-85.54872136819027,38.187691457159],[-85.54856420352469,38.18765164300366],[-85.5484090241671,38.18760724065323],[-85.5482560445785,38.1875583135496],[-85.54810547806913,38.187504927836436],[-85.54795753221477,38.18744715865847],[-85.54789631102156,38.18760752675165],[-85.5477385836406,38.187541311056044],[-85.54758419943198,38.18747035633536],[-85.54743338757632,38.187394767508174],[-85.54750481066912,38.18733601290765],[-85.54514359220283,38.18786334350878],[-85.54478314191523,38.19127292482122],[-85.54446281512818,38.194302703184434],[-85.5424526594435,38.19473844749096],[-85.54148131116797,38.19625579181871],[-85.54182558941994,38.197283043917665],[-85.54005693562752,38.19766594452194],[-85.54062415449674,38.199071347993],[-85.54106742671175,38.1988877388939],[-85.54372035989724,38.197728123968375],[-85.54419020088042,38.19753951933546],[-85.54434605133325,38.19748429053358],[-85.54450501692075,38.19743490073966],[-85.54466674687028,38.197391459251044],[-85.54483088474433,38.19735406094122],[-85.54499706729044,38.19732278896102],[-85.54540636251161,38.1974102155485],[-85.54623364976257,38.197788119109276],[-85.54551639123927,38.19857534669326],[-85.54552826751113,38.19860446864826],[-85.54556645241162,38.19869809888204],[-85.54576896546321,38.19918526504746],[-85.54593397085252,38.19957644494551],[-85.54622240126064,38.20026064702462],[-85.54635629859384,38.200578065867475],[-85.54646755712025,38.20084188277334],[-85.54625093848834,38.20089136866343],[-85.54572191777054,38.20101224405407],[-85.54513357353962,38.20114662170696],[-85.54475416704241,38.20123332570663],[-85.54437341729151,38.201320315365074],[-85.54326091123173,38.20157676015224],[-85.54263876154509,38.201720187728284],[-85.54256593283677,38.20173697756],[-85.54256587114148,38.201736991867364],[-85.5425397627079,38.2017430105126],[-85.54251364310386,38.20174893993632],[-85.54239576208381,38.201775700955274],[-85.54177264638102,38.201917156356366],[-85.54169869908289,38.20193409144367],[-85.54073374650854,38.19952829728358],[-85.54068895356815,38.19952777202961],[-85.5406442347761,38.1995256629801],[-85.54059968260164,38.19952197480362],[-85.54055538265601,38.1995167148598],[-85.54051376438231,38.19951194257117],[-85.54047187722195,38.199508981647405],[-85.54042984674292,38.199507838617635],[-85.54038780079934,38.19950851911408],[-85.54034586498484,38.199511020656566],[-85.54030416719444,38.1995153344622],[-85.54026283190578,38.19952144903938],[-85.54022198361992,38.199529344788],[-85.54018174798979,38.19953899850604],[-85.54014224383383,38.19955038157401],[-85.53940183573461,38.19978209381228],[-85.53932867212504,38.19980421391736],[-85.53925487525717,38.19982498138978],[-85.53918048398667,38.199844384584985],[-85.5391055383085,38.199862412761455],[-85.53913996757376,38.19991211864477],[-85.53905421571251,38.1999503417407],[-85.53896984674662,38.199990435859],[-85.53888692697741,38.2000323713889],[-85.53880552157507,38.20007611511375],[-85.53872569343223,38.20012163201106],[-85.5386475042977,38.20016888795738],[-85.53857101478677,38.200217846124374],[-85.53849628552055,38.200268467881905],[-85.53842337255631,38.20032071369073],[-85.53835233423537,38.200374544015766],[-85.53828322548217,38.200429916612954],[-85.53821610008528,38.20048678743429],[-85.53815650277639,38.20053984437149],[-85.5380983570958,38.20059389675075],[-85.53804169166294,38.200648918497215],[-85.5382494662033,38.20097878981889],[-85.53826590275128,38.2010212964891],[-85.53866532589572,38.20092511767429],[-85.53972439046692,38.2036637853632],[-85.53931975041255,38.20374530591283],[-85.53962230113001,38.20443143248298],[-85.54019005591036,38.20578875782605],[-85.53961561198402,38.20591190379499],[-85.53852779471218,38.206162965405845],[-85.5380931109423,38.20626262762197],[-85.53733648144362,38.20643608944331],[-85.5369311224965,38.20652902120717],[-85.5364318618471,38.206643465722856],[-85.53381683895353,38.20719327494818],[-85.53383951524354,38.207252647131085],[-85.5339292969781,38.20745162392542],[-85.5328724077821,38.20783514981418],[-85.53331788759746,38.2085866465566],[-85.53171812461426,38.20900272648929],[-85.531874467241,38.209420641763714],[-85.5320861316037,38.20998626558267],[-85.53003123474748,38.21071362070167],[-85.52929597411008,38.210973856678095],[-85.52944755910762,38.21143066275209],[-85.52962030498406,38.211923954033225],[-85.52969223639842,38.21218088515476],[-85.52992484720886,38.212987681545265],[-85.52792750913343,38.21340029274124],[-85.5283935609698,38.214760193497156],[-85.52825207235944,38.21472289939827],[-85.52808659505165,38.21463586536765],[-85.52791659466337,38.214570469297406],[-85.52747192185818,38.21456438451598],[-85.52708001488007,38.21463095167117],[-85.52673970388614,38.21467885494546],[-85.52638504191087,38.21471757356085],[-85.52591037667612,38.21475774953962],[-85.52537433183012,38.214723735682746],[-85.52525549619381,38.21467614329154],[-85.52372590832229,38.21504534723011],[-85.52337450186803,38.214124727122005],[-85.52300427909941,38.214213169935796],[-85.5190636838331,38.21414450752893],[-85.51794327988874,38.21412471609078],[-85.51654824654449,38.21397842848419],[-85.51609371322625,38.21388882103122],[-85.51576361759145,38.21433986892227],[-85.5154707959452,38.21439374959054],[-85.51635032592436,38.217481674536366],[-85.51867300678417,38.21922881455671],[-85.51893369263983,38.219424897243655],[-85.52176270227719,38.21875125766302],[-85.52175128945368,38.21872529135716],[-85.52484460858426,38.21798886319477],[-85.52480071340305,38.217901766802576],[-85.52700807189115,38.21743117875211],[-85.52704322950284,38.217525486333635],[-85.52825534501574,38.21727481157507],[-85.52872103961768,38.21717849888459],[-85.53000221606328,38.21690604456057],[-85.53185173740665,38.22165892807063]],[[-85.54436396254711,38.20963564050769],[-85.5443638460078,38.20963566463126],[-85.5442882421784,38.20965073612954],[-85.54310621263313,38.20970858256583],[-85.54268185117344,38.209729331228054],[-85.54065078648176,38.209850906507526],[-85.5404093412688,38.20919196969349],[-85.54062755611648,38.20912720702349],[-85.54044587858213,38.2085798259816],[-85.54039518778316,38.20842698472741],[-85.54009871371572,38.207444265850725],[-85.54183629582734,38.207240864993445],[-85.54256236757215,38.20715483212287],[-85.5433920073806,38.20706711345817],[-85.54349427111043,38.207386592468346],[-85.54357539946496,38.20737798476724],[-85.54390273925073,38.20839347640451],[-85.54381386818262,38.2083958982838],[-85.54410380794121,38.20929620150248],[-85.54419792515736,38.20930833199308],[-85.54430909541964,38.20963349719666],[-85.54436221817635,38.20963058213174],[-85.54436396254711,38.20963564050769]],[[-85.5527805488131,38.19887291066216],[-85.55320298899802,38.1999114814595],[-85.55237300475132,38.20014372036514],[-85.55171624632655,38.20034975182413],[-85.549752859632,38.200913793842105],[-85.54906870029666,38.201107937118756],[-85.54869594876185,38.20121365665382],[-85.54853131071211,38.20126035117342],[-85.54824138882506,38.20077789810096],[-85.54803668147562,38.20026106725292],[-85.54789121631934,38.199893723865706],[-85.54782435412778,38.19972494303781],[-85.54759260556375,38.19913988663546],[-85.54727446435248,38.198289710028874],[-85.54865882345534,38.197966858170865],[-85.54850152509086,38.197560646105785],[-85.55079962134744,38.19758232927323],[-85.55184105211903,38.197601436212324],[-85.55184629314078,38.197532881860326],[-85.55224304415489,38.197556720831855],[-85.5527805488131,38.19887291066216]],[[-85.5551121161928,38.19733680384126],[-85.54678004744615,38.19718840587903],[-85.54740860209711,38.196450770192136],[-85.54748214839385,38.19626247473186],[-85.54749750927539,38.19623145890433],[-85.54751870369554,38.19620266405178],[-85.54754523201497,38.19617676864956],[-85.54757647034617,38.19615438158509],[-85.54761168200005,38.19613603136617],[-85.54765003808055,38.19612214993914],[-85.54769063348976,38.19611306460775],[-85.54784408452726,38.1959437557473],[-85.54790530802781,38.196095067143204],[-85.54794188448966,38.19606234232725],[-85.54801326028328,38.19591385592264],[-85.54808655373311,38.19575248071583],[-85.54815226946664,38.19558908605499],[-85.54821031787489,38.19542389253795],[-85.54826061961661,38.19525712438285],[-85.54830310790612,38.195089007629605],[-85.54833772394403,38.19491977103349],[-85.548364421493,38.19474964246857],[-85.54838316457976,38.194578854329855],[-85.54839392637003,38.19440763722456],[-85.54839669486908,38.19423622268448],[-85.54839146492495,38.19406484495438],[-85.54837824281168,38.193893734693184],[-85.54835704849549,38.19372312528443],[-85.54832790880116,38.19355324651789],[-85.54829086538868,38.19338433000903],[-85.54995075914987,38.19299933008054],[-85.54973195804942,38.19206051047296],[-85.55079104209298,38.19148233779679],[-85.55067149462117,38.19134577025853],[-85.55034603292813,38.190973971951436],[-85.55263973701939,38.18972173877385],[-85.5526742838164,38.189770542768244],[-85.55278150720602,38.189935115302724],[-85.55288145736044,38.19010251547935],[-85.55295351592,38.19018791373316],[-85.55303184561184,38.19026979957669],[-85.55311617323069,38.190347886933864],[-85.55320620384315,38.19042190230584],[-85.55349023938385,38.190657911051304],[-85.55362331674057,38.19076570398578],[-85.5537502097853,38.19087804633445],[-85.5538706690934,38.19099471696444],[-85.55398445781157,38.19111548755579],[-85.55409135052382,38.19124011989674],[-85.55419113894948,38.191368369496686],[-85.55428362738215,38.19149998377657],[-85.55436863154358,38.191634703868694],[-85.55439890215925,38.1916854670829],[-85.55449305235408,38.19184978209088],[-85.55458084185598,38.19201627587136],[-85.55466219112353,38.19218479514133],[-85.55473702518384,38.192355184822524],[-85.55474814924976,38.1923818134602],[-85.55476399727591,38.19241104380073],[-85.55478502585018,38.192438162699666],[-85.55481079239446,38.19246260181011],[-85.55484076056352,38.19248385029251],[-85.55487430022558,38.19250146202273],[-85.55499779921757,38.19255486646413],[-85.5549860471098,38.19255584536226],[-85.55468093981777,38.19258125649946],[-85.55468312476364,38.19274531125473],[-85.55469743369578,38.19290895356034],[-85.55477165776443,38.19308538771258],[-85.5548665520935,38.193255509461494],[-85.55498163213461,38.19341782684714],[-85.55503936590026,38.19347201291174],[-85.55508440911994,38.19353319751608],[-85.55511560887068,38.19359960025209],[-85.5551318128524,38.19366920014939],[-85.55513260028864,38.193740072040725],[-85.55511809825106,38.19380990964321],[-85.55508849559259,38.193876788782745],[-85.55504489257261,38.19393864442868],[-85.55498845377389,38.19399369996429],[-85.55492088810145,38.194040275172014],[-85.5548441480266,38.194076977647214],[-85.55476061426322,38.19410280401454],[-85.5548106270245,38.194175255484005],[-85.55457475161357,38.194225917768875],[-85.55461165773792,38.19429080110405],[-85.55421578422002,38.19438769563914],[-85.5540623957003,38.19442523471659],[-85.55382718182047,38.19451078140072],[-85.55356496063624,38.19460614661354],[-85.55341426172672,38.194654553256164],[-85.55326665343452,38.194701966569724],[-85.55318412808637,38.194728474634815],[-85.55363955700804,38.19549595835161],[-85.55377105695939,38.195697811759764],[-85.5539027817192,38.19591969672005],[-85.55420706259596,38.1957749973652],[-85.5551121161928,38.19733680384126]],[[-85.55596358232593,38.19276863366716],[-85.55549918408799,38.19173413360005],[-85.55640578419323,38.191494337781556],[-85.55673225649605,38.19129645027891],[-85.55673241078864,38.19131813517998],[-85.55674269701139,38.192761533221706],[-85.5563876300332,38.19276475089263],[-85.55596719603312,38.192776684393245],[-85.55596358232593,38.19276863366716]],[[-85.57301158452108,38.181063969366775],[-85.57296566436234,38.18151710974176],[-85.57349420357528,38.18154520947809],[-85.57362466332133,38.18155213536481],[-85.57350340268437,38.18233259351325],[-85.57346665282769,38.18256909622102],[-85.57330025368724,38.18256115511596],[-85.57309042837467,38.18255103241308],[-85.57285788485223,38.18253986620856],[-85.57263149304126,38.18252904483946],[-85.57242014532451,38.18251887091097],[-85.57220087893955,38.18250839638421],[-85.5720029920445,38.1824989158819],[-85.5719241778707,38.18249504643706],[-85.57179347071478,38.18248879133418],[-85.57127222791071,38.182463724122805],[-85.57129981378942,38.1820905148263],[-85.57132783165366,38.18171509424307],[-85.5713339886766,38.18143647572024],[-85.57125018245878,38.181432358619524],[-85.57127863021584,38.18097996100676],[-85.57301158452108,38.181063969366775]],[[-85.57107762190337,38.18125400610448],[-85.57106391710623,38.181554538464745],[-85.57105246881432,38.18180386813022],[-85.57102025177602,38.18180136690604],[-85.57025561464303,38.18172169132253],[-85.56978222317306,38.18168476584517],[-85.56980054215933,38.18144217795512],[-85.56984013239735,38.180846036946924],[-85.56986552770829,38.1808480947308],[-85.5701188744356,38.18086881910682],[-85.57037806894544,38.18088998339198],[-85.57083318058561,38.180927167110646],[-85.5710915824406,38.18094823402682],[-85.57107762190337,38.18125400610448]]]}}]}